NAVSTAR 77 (USA 289)    
1 43873U 18109A   24124.24268541  .00000094  00000+0  00000+0 0  9990
2 43873  55.2801 122.8032 0028778 196.0067 182.5115  2.00553696 39536
